[{"OBJECT_NAME":"STARLINK-34419","OBJECT_ID":"2025-129A","EPOCH":"2026-03-09T10:09:51.623424","MEAN_MOTION":14.98328443,"ECCENTRICITY":0.00031614,"INCLINATION":70.0005,"RA_OF_ASC_NODE":75.2708,"ARG_OF_PERICENTER":269.3524,"MEAN_ANOMALY":90.7273,"EPHEMERIS_TYPE":0,"CLASSIFICATION_TYPE":"U","NORAD_CAT_ID":64412,"ELEMENT_SET_NO":999,"REV_AT_EPOCH":4126,"BSTAR":0.00033187952,"MEAN_MOTION_DOT":3.869e-5,"MEAN_MOTION_DDOT":0},{"OBJECT_NAME":"CZ-4C DEB","OBJECT_ID":"2015-069D","EPOCH":"2026-03-09T14:03:55.988352","MEAN_MOTION":14.76537169,"ECCENTRICITY":0.0113533,"INCLINATION":97.7994,"RA_OF_ASC_NODE":293.1388,"ARG_OF_PERICENTER":335.1928,"MEAN_ANOMALY":24.3848,"EPHEMERIS_TYPE":0,"CLASSIFICATION_TYPE":"U","NORAD_CAT_ID":42671,"ELEMENT_SET_NO":999,"REV_AT_EPOCH":54179,"BSTAR":0.00082265,"MEAN_MOTION_DOT":6.325e-5,"MEAN_MOTION_DDOT":0}]
